[{"OBJECT_NAME":"PROBA-V","OBJECT_ID":"2013-021A","EPOCH":"2026-03-09T22:43:07.567104","MEAN_MOTION":14.2357369,"ECCENTRICITY":0.00052918,"INCLINATION":98.3507,"RA_OF_ASC_NODE":52.496,"ARG_OF_PERICENTER":69.2213,"MEAN_ANOMALY":290.9533,"EPHEMERIS_TYPE":0,"CLASSIFICATION_TYPE":"U","NORAD_CAT_ID":39159,"ELEMENT_SET_NO":999,"REV_AT_EPOCH":66699,"BSTAR":6.8440241e-5,"MEAN_MOTION_DOT":1.15e-6,"MEAN_MOTION_DDOT":0},{"OBJECT_NAME":"UNKNOWN","OBJECT_ID":"","EPOCH":"2026-03-09T07:23:53.883456","MEAN_MOTION":14.19788248,"ECCENTRICITY":0.00093381,"INCLINATION":81.2098,"RA_OF_ASC_NODE":26.712,"ARG_OF_PERICENTER":252.9374,"MEAN_ANOMALY":107.0779,"EPHEMERIS_TYPE":0,"CLASSIFICATION_TYPE":"U","NORAD_CAT_ID":270387,"ELEMENT_SET_NO":999,"REV_AT_EPOCH":14587,"BSTAR":0.0010225117,"MEAN_MOTION_DOT":2.178e-5,"MEAN_MOTION_DDOT":0}]
